MATS                    
1 54227U 22147A   24076.95866828  .00004027  00000+0  36129-3 0  9993
2 54227  97.6669  77.3547 0014926  82.9192 277.3726 14.96221452 74406
JILIN-1 GAOFEN 03D54    
1 54254U 22155D   24077.49826643  .00010774  00000+0  50197-3 0  9990
2 54254  97.5513 187.7680 0012786  50.1933 310.0425 15.20008016 73721
EOS-6 (OCEANSAT-3)      
1 54361U 22158A   24077.53328387  .00000444  00000+0  13407-3 0  9995
2 54361  98.3477 175.8221 0001415 112.4445 247.6897 14.47001476 69010
THYBOLT-1               
1 54363U 22158C   24077.51975302  .00116622  00000+0  14084-2 0  9997
2 54363  97.4330 185.9426 0003608 318.5153  41.5830 15.60340652 73112
THYBOLT-2               
1 54364U 22158D   24077.53152062  .00107304  00000+0  13588-2 0  9995
2 54364  97.4319 185.7689 0003715 318.7199  41.3776 15.59119186 73100
INS-2B                  
1 54365U 22158E   24077.55106948  .00081820  00000+0  11954-2 0  9999
2 54365  97.4312 185.0464 0003159   0.0342   0.0912 15.55359415 73078
ANAND                   
1 54366U 22158F   24077.53454725  .00038654  00000+0  83212-3 0  9991
2 54366  97.4314 182.9940 0004998  22.6846 337.4623 15.44512514 72947
ASTROCAST-0304          
1 54367U 22158G   24077.55065789  .00010026  00000+0  33948-3 0  9996
2 54367  97.4359 180.0141 0008985  50.5493 309.6542 15.30747077 72723
ASTROCAST-0303          
1 54368U 22158H   24077.52344589  .00013782  00000+0  46364-3 0  9990
2 54368  97.4387 180.4052 0008809  71.9612 288.2588 15.30878329 72744
ASTROCAST-0302          
1 54369U 22158J   24077.51772788  .00009657  00000+0  32736-3 0  9990
2 54369  97.4390 180.2178 0007212  66.9578 293.2423 15.30735158 72733
ASTROCAST-0301          
1 54370U 22158K   24077.50116107  .00010266  00000+0  34805-3 0  9995
2 54370  97.4402 180.3101 0008390  69.1055 291.1083 15.30703969 72733
2022-167A               
1 54682U 22167A   24077.51166402  .00038079  00000+0  12943-2 0  9995
2 54682  97.5845 221.7836 0007520 103.9147 256.2930 15.30335926 70419
CAS-5A (FO-118)         
1 54684U 22167C   24077.47108103  .00019112  00000+0  78385-3 0  9996
2 54684  97.5918 220.6156 0011167 108.3403 251.9050 15.24238989 70308
DONGPO 09               
1 54685U 22167D   24077.52109723  .00009278  00000+0  46694-3 0  9992
2 54685  97.5991 219.2248 0006317 118.1308 242.0564 15.17419463 70198
DONGPO 08               
1 54686U 22167E   24077.53541329  .00009853  00000+0  49629-3 0  9996
2 54686  97.5939 218.9186 0010107 136.8745 223.3281 15.17345783 70193
2022-167F               
1 54687U 22167F   24077.50941362  .00012277  00000+0  68280-3 0  9993
2 54687  97.5818 219.2073 0009148 109.8837 250.3381 15.13780912 70233
DONGPO 10               
1 54689U 22167H   24077.51330688  .00008925  00000+0  44859-3 0  9990
2 54689  97.6017 219.3779 0011754 110.8158 249.4336 15.17433023 70191
2022-167M               
1 54693U 22167M   24077.50628765  .00039667  00000+0  12431-2 0  9997
2 54693  97.5890 222.8982 0008262 104.8862 255.3295 15.32936783 70428
JILIN-1 GAOFEN 03D48    
1 54695U 22167P   24077.52996161  .00009682  00000+0  48752-3 0  9999
2 54695  97.5954 219.1413 0013483 117.2763 242.9845 15.17326613 70205
STAR VIBE               
1 55009U 23001A   24077.44336468  .00006480  00000+0  32258-3 0  9993
2 55009  97.4362 136.7372 0010133 147.7975 212.3880 15.17886885 66585
BRO-8                   
1 55011U 23001C   24077.44740854  .00004992  00000+0  25128-3 0  9998
2 55011  97.4427 137.0643 0011248 150.0212 210.1667 15.17604012 66583
CONNECTA T1.2           
1 55012U 23001D   24076.74797956  .00010726  00000+0  50266-3 0  9999
2 55012  97.4434 137.0146 0011872 151.3939 208.7949 15.19812518 66516
BIRKELAND               
1 55015U 23001G   24077.44246622  .00005196  00000+0  24143-3 0  9999
2 55015  97.4433 138.1526 0010989 141.0785 219.1243 15.20374024 66650
ION SCV-008             
1 55051U 23001AU  24076.75983468  .00004537  00000+0  27246-3 0  9993
2 55051  97.6175 155.7482 0010850   3.8272 356.3039 15.11368457 66317
ION SCV-007             
1 55060U 23001BD  24077.18064341  .00000722  00000+0  11382-3 0  9997
2 55060  98.0091 140.9303 0014265  97.9014 262.3815 14.75358987 64939
NSL-2                   
1 55067U 23001BL  24077.12973492  .00064610  00000+0  14812-2 0  9990
2 55067  97.4349 143.6518 0009846 120.8431 239.3786 15.42475008 66999
TAUSAT-2                
1 55073U 23001BS  24076.68565469  .00015897  00000+0  59731-3 0  9991
2 55073  97.4377 139.5115 0014373 112.8498 247.4260 15.27161438 66695
FLOCK 4Y-23             
1 55080U 23001BZ  24077.16478215  .00011244  00000+0  44098-3 0  9997
2 55080  97.4373 139.7028 0014377 128.8521 231.4002 15.25821462 66754
HUYGENS                 
1 55093U 23001CN  24077.44253258  .00006166  00000+0  28532-3 0  9992
2 55093  97.4385 138.1777 0016254 125.3780 234.8977 15.20377058 66671
BDSAT-2                 
1 55098U 23001CT  24076.69122819  .00016970  00000+0  62182-3 0  9994
2 55098  97.4404 139.8557 0014153 124.8829 235.3743 15.27980033 66707
SHARJAHSAT-1            
1 55104U 23001CZ  24077.41492678  .00006447  00000+0  31344-3 0  9990
2 55104  97.4381 137.0378 0011734 149.4664 210.7256 15.18699727 66592
2023-003A               
1 55133U 23003A   24077.49587152  .00011067  00000+0  48369-3 0  9993
2 55133  97.2319 154.5827 0004915 172.7019 187.4290 15.22243436 65710
2023-007N               
1 55260U 23007N   24077.49497586  .00074683  00000+0  97680-3 0  9992
2 55260  97.3140 157.8670 0006124 209.0375 151.0541 15.58363112 65718
2023-007P               
1 55261U 23007P   24077.51517894  .00038259  00000+0  76456-3 0  9998
2 55261  97.3189 155.4277 0007099 210.3650 149.7190 15.46686054 65558
EOS-7                   
1 55562U 23019A   24077.46997496  .00029992  00000+0  58728-3 0  9995
2 55562  37.1790  98.3262 0001445 281.0561  79.0037 15.46528788 62074
HORUS 1                 
1 55690U 23025A   24077.50006897  .00008014  00000+0  34045-3 0  9993
2 55690  97.4297 153.7630 0001191  54.4263 305.7084 15.23324166 58953
HORUS 2                 
1 55844U 23032A   24077.46739938  .00007643  00000+0  32309-3 0  9994
2 55844  97.4345 153.8825 0003750 104.6111 255.5542 15.23500514 56387
GLOBAL-19               
1 55982U 23041B   24076.86113259  .00019682  00000+0  51043-3 0  9994
2 55982  42.0128 319.5509 0003731 299.9121  60.1348 15.38586416 55264
DEWASAT-2               
1 56180U 23054C   24077.53646097  .00025344  00000+0  73301-3 0  9998
2 56180  97.3785 335.3323 0008672 133.2153 226.9816 15.35567812 52064
KILICSAT                
1 56181U 23054D   24077.52625529  .00019192  00000+0  60400-3 0  9995
2 56181  97.3739 334.7048 0008542 132.8538 227.3423 15.32948594 52043
SSS-2B                  
1 56184U 23054G   24077.50938165  .00021404  00000+0  65321-3 0  9995
2 56184  97.3805 335.1633 0009572 132.8225 227.3823 15.33897036 52052
BRO-9                   
1 56185U 23054H   24077.48921661  .00008330  00000+0  30796-3 0  9997
2 56185  97.3724 333.5618 0009405 131.8057 228.3987 15.27922966 51971
CIRBE                   
1 56188U 23054L   24077.25633906  .00036034  00000+0  89957-3 0  9992
2 56188  97.3729 335.7168 0008610 121.3296 238.8794 15.40051273 52083
ION SCV-010             
1 56192U 23054Q   24076.65935384  .00003077  00000+0  22103-3 0  9996
2 56192  97.4796 328.1166 0014053  74.5339 285.7439 15.04926468 51276
GHOST-1                 
1 56195U 23054T   24076.69183712  .00009276  00000+0  34069-3 0  9994
2 56195  97.3748 333.0544 0011060 124.5350 235.6935 15.28088782 51868
GHOST-2                 
1 56197U 23054V   24076.66045907  .00011260  00000+0  39470-3 0  9993
2 56197  97.3737 333.3765 0011358 124.4822 235.7493 15.29563180 51882
TOMORROW-R1             
1 56199U 23054X   24077.29415931  .00013453  00000+0  43921-3 0  9995
2 56199  97.3761 334.6017 0010924 122.3281 237.9020 15.31829382 52017
FACSAT-2                
1 56205U 23054AD  24077.49522141  .00009929  00000+0  32559-3 0  9995
2 56205  97.3784 335.1885 0014260 113.7538 246.5201 15.31723559 52066
CONNECTA T2.1           
1 56210U 23054AJ  24077.52245476  .00011010  00000+0  37265-3 0  9991
2 56210  97.3710 334.5124 0013294 111.1718 249.0944 15.30685999 52042
INSPIRE-SAT 7           
1 56211U 23054AK  24077.20958292  .00035464  00000+0  84676-3 0  9991
2 56211  97.3765 336.6608 0012188 109.3258 250.9308 15.41367671 52133
ROSEYCUBESAT-1          
1 56212U 23054AL  24077.51554096  .00043846  00000+0  98328-3 0  9992
2 56212  97.3772 337.3420 0012197 105.9488 254.3104 15.43204187 52203
LS3C                    
1 56214U 23054AN  24076.66176471  .00027527  00000+0  69019-3 0  9999
2 56214  97.3725 335.6591 0012406 107.6498 252.6103 15.39931716 52037
IRIS-C                  
1 56221U 23054AV  24077.27360471  .00029765  00000+0  80624-3 0  9991
2 56221  97.3733 335.3169 0011347 110.7699 249.4762 15.37554390 52057
DISCO-1                 
1 56222U 23054AW  24076.66216110  .00019884  00000+0  61761-3 0  9996
2 56222  97.3719 333.9454 0012164 122.1191 238.1233 15.33324549 51914
VIREO                   
1 56223U 23054AX  24077.46721881  .00047928  00000+0  10733-2 0  9994
2 56223  97.3691 336.6016 0009655 105.5751 254.6563 15.43255654 52175
REVELA                  
1 56224U 23054AY  24076.66608731  .00021465  00000+0  63202-3 0  9992
2 56224  97.3738 334.6028 0008358 111.3280 248.8856 15.35041098 51951
ISTANBUL                
1 56230U 23084BP  24077.42576196  .00452708  00000+0  36940-2 0  9992
2 56230  97.5041 201.4513 0014505 289.7788  70.1909 15.69136733 42549
TELEOS-2                
1 56310U 23057C   24077.21253911  .00006736  00000+0  51853-3 0  9992
2 56310   9.9892  69.1538 0000729 278.3356  81.6775 14.96436612 49478
SNIPE 4                 
1 56744U 23072B   24077.45804763  .00007133  00000+0  42406-3 0  9999
2 56744  97.5521 265.1010 0012060 350.3825   9.7172 15.11517393 44805
